CCSDS_OMM_VERS = 2.0
CREATION_DATE  = 
ORIGINATOR     = 

OBJECT_NAME    = RASSVET-3 14
OBJECT_ID      = 2026-061P
CENTER_NAME    = EARTH
REF_FRAME      = TEME
TIME_SYSTEM    = UTC
MEAN_ELEMENT_THEORY = SGP/SGP4

EPOCH          = 2026-03-31T15:44:55.679136
MEAN_MOTION    = 15.88818575
ECCENTRICITY   = .00263018
INCLINATION    = 82.2970
RA_OF_ASC_NODE = 99.7095
ARG_OF_PERICENTER = 44.0543
MEAN_ANOMALY   = 316.2818

EPHEMERIS_TYPE = 0
CLASSIFICATION_TYPE = U
NORAD_CAT_ID   = 68373
ELEMENT_SET_NO = 999
REV_AT_EPOCH   = 126
BSTAR          = .22410909E-3
MEAN_MOTION_DOT = .65061E-3
MEAN_MOTION_DDOT = .3236E-6

CCSDS_OMM_VERS = 2.0
CREATION_DATE  = 
ORIGINATOR     = 

OBJECT_NAME    = RASSVET-3 15
OBJECT_ID      = 2026-061Q
CENTER_NAME    = EARTH
REF_FRAME      = TEME
TIME_SYSTEM    = UTC
MEAN_ELEMENT_THEORY = SGP/SGP4

EPOCH          = 2026-03-31T15:44:51.780768
MEAN_MOTION    = 15.88835235
ECCENTRICITY   = .00260596
INCLINATION    = 82.2970
RA_OF_ASC_NODE = 99.7096
ARG_OF_PERICENTER = 44.1575
MEAN_ANOMALY   = 316.1770

EPHEMERIS_TYPE = 0
CLASSIFICATION_TYPE = U
NORAD_CAT_ID   = 68374
ELEMENT_SET_NO = 999
REV_AT_EPOCH   = 126
BSTAR          = .22470769E-3
MEAN_MOTION_DOT = .65252E-3
MEAN_MOTION_DDOT = .33249E-6

CCSDS_OMM_VERS = 2.0
CREATION_DATE  = 
ORIGINATOR     = 

OBJECT_NAME    = RASSVET-3 16
OBJECT_ID      = 2026-061R
CENTER_NAME    = EARTH
REF_FRAME      = TEME
TIME_SYSTEM    = UTC
MEAN_ELEMENT_THEORY = SGP/SGP4

EPOCH          = 2026-03-31T15:43:56.332704
MEAN_MOTION    = 15.89296702
ECCENTRICITY   = .00254618
INCLINATION    = 82.2966
RA_OF_ASC_NODE = 99.7084
ARG_OF_PERICENTER = 44.5811
MEAN_ANOMALY   = 315.7502

EPHEMERIS_TYPE = 0
CLASSIFICATION_TYPE = U
NORAD_CAT_ID   = 68375
ELEMENT_SET_NO = 999
REV_AT_EPOCH   = 126
BSTAR          = .39090949E-3
MEAN_MOTION_DOT = .115755E-2
MEAN_MOTION_DDOT = .3519783E-5

CCSDS_OMM_VERS = 2.0
CREATION_DATE  = 
ORIGINATOR     = 

OBJECT_NAME    = SUPERVIEW NEO-2 OBJECT A
OBJECT_ID      = 2026-062A
CENTER_NAME    = EARTH
REF_FRAME      = TEME
TIME_SYSTEM    = UTC
MEAN_ELEMENT_THEORY = SGP/SGP4

EPOCH          = 2026-04-02T04:04:17.416128
MEAN_MOTION    = 15.20600347
ECCENTRICITY   = .0006349
INCLINATION    = 97.4361
RA_OF_ASC_NODE = 100.5539
ARG_OF_PERICENTER = 239.5784
MEAN_ANOMALY   = 120.4824

EPHEMERIS_TYPE = 0
CLASSIFICATION_TYPE = U
NORAD_CAT_ID   = 68377
ELEMENT_SET_NO = 999
REV_AT_EPOCH   = 110
BSTAR          = .17611E-3
MEAN_MOTION_DOT = .3792E-4
MEAN_MOTION_DDOT = 0

CCSDS_OMM_VERS = 2.0
CREATION_DATE  = 
ORIGINATOR     = 

OBJECT_NAME    = SUPERVIEW NEO-2 OBJECT B
OBJECT_ID      = 2026-062B
CENTER_NAME    = EARTH
REF_FRAME      = TEME
TIME_SYSTEM    = UTC
MEAN_ELEMENT_THEORY = SGP/SGP4

EPOCH          = 2026-03-31T17:19:08.069952
MEAN_MOTION    = 15.20585060
ECCENTRICITY   = .00089524
INCLINATION    = 97.4347
RA_OF_ASC_NODE = 99.1253
ARG_OF_PERICENTER = 250.4427
MEAN_ANOMALY   = 109.5842

EPHEMERIS_TYPE = 0
CLASSIFICATION_TYPE = U
NORAD_CAT_ID   = 68378
ELEMENT_SET_NO = 999
REV_AT_EPOCH   = 88
BSTAR          = .19790811E-3
MEAN_MOTION_DOT = .427E-4
MEAN_MOTION_DDOT = 0

CCSDS_OMM_VERS = 2.0
CREATION_DATE  = 
ORIGINATOR     = 

OBJECT_NAME    = CZ-2D R/B
OBJECT_ID      = 2026-062C
CENTER_NAME    = EARTH
REF_FRAME      = TEME
TIME_SYSTEM    = UTC
MEAN_ELEMENT_THEORY = SGP/SGP4

EPOCH          = 2026-04-02T06:00:35.030016
MEAN_MOTION    = 15.31146855
ECCENTRICITY   = .0052998
INCLINATION    = 97.4979
RA_OF_ASC_NODE = 100.6053
ARG_OF_PERICENTER = 36.3093
MEAN_ANOMALY   = 324.1725

EPHEMERIS_TYPE = 0
CLASSIFICATION_TYPE = U
NORAD_CAT_ID   = 68379
ELEMENT_SET_NO = 999
REV_AT_EPOCH   = 112
BSTAR          = .47587E-3
MEAN_MOTION_DOT = .14886E-3
MEAN_MOTION_DDOT = 0

CCSDS_OMM_VERS = 2.0
CREATION_DATE  = 
ORIGINATOR     = 

OBJECT_NAME    = SHIYAN-33
OBJECT_ID      = 2026-064A
CENTER_NAME    = EARTH
REF_FRAME      = TEME
TIME_SYSTEM    = UTC
MEAN_ELEMENT_THEORY = SGP/SGP4

EPOCH          = 2026-04-01T22:24:08.393472
MEAN_MOTION    = 15.23180330
ECCENTRICITY   = .00134825
INCLINATION    = 97.4660
RA_OF_ASC_NODE = 167.8534
ARG_OF_PERICENTER = 208.6635
MEAN_ANOMALY   = 151.3863

EPHEMERIS_TYPE = 0
CLASSIFICATION_TYPE = U
NORAD_CAT_ID   = 68405
ELEMENT_SET_NO = 999
REV_AT_EPOCH   = 88
BSTAR          = .26608701E-3
MEAN_MOTION_DOT = .6234E-4
MEAN_MOTION_DDOT = 0

CCSDS_OMM_VERS = 2.0
CREATION_DATE  = 
ORIGINATOR     = 

OBJECT_NAME    = LPNTSAT-001 (IOD-1)
OBJECT_ID      = 2026-065A
CENTER_NAME    = EARTH
REF_FRAME      = TEME
TIME_SYSTEM    = UTC
MEAN_ELEMENT_THEORY = SGP/SGP4

EPOCH          = 2026-04-01T04:04:57.158400
MEAN_MOTION    = 15.18233471
ECCENTRICITY   = .0015408
INCLINATION    = 97.4137
RA_OF_ASC_NODE = 333.2788
ARG_OF_PERICENTER = 273.4606
MEAN_ANOMALY   = 86.4866

EPHEMERIS_TYPE = 0
CLASSIFICATION_TYPE = U
NORAD_CAT_ID   = 68408
ELEMENT_SET_NO = 999
REV_AT_EPOCH   = 57
BSTAR          = .23469E-3
MEAN_MOTION_DOT = .475E-4
MEAN_MOTION_DDOT = 0

CCSDS_OMM_VERS = 2.0
CREATION_DATE  = 
ORIGINATOR     = 

OBJECT_NAME    = LPNTSAT-002 (IOD-2)
OBJECT_ID      = 2026-065B
CENTER_NAME    = EARTH
REF_FRAME      = TEME
TIME_SYSTEM    = UTC
MEAN_ELEMENT_THEORY = SGP/SGP4

EPOCH          = 2026-03-30T22:01:49.710144
MEAN_MOTION    = 15.18186279
ECCENTRICITY   = .00125114
INCLINATION    = 97.4122
RA_OF_ASC_NODE = 332.0512
ARG_OF_PERICENTER = 274.1697
MEAN_ANOMALY   = 85.8107

EPHEMERIS_TYPE = 0
CLASSIFICATION_TYPE = U
NORAD_CAT_ID   = 68409
ELEMENT_SET_NO = 999
REV_AT_EPOCH   = 36
BSTAR          = .84452084E-4
MEAN_MOTION_DOT = .1661E-4
MEAN_MOTION_DDOT = 0

CCSDS_OMM_VERS = 2.0
CREATION_DATE  = 
ORIGINATOR     = 

OBJECT_NAME    = ELECTRON R/B
OBJECT_ID      = 2026-065C
CENTER_NAME    = EARTH
REF_FRAME      = TEME
TIME_SYSTEM    = UTC
MEAN_ELEMENT_THEORY = SGP/SGP4

EPOCH          = 2026-03-29T17:50:42.810720
MEAN_MOTION    = 15.83047135
ECCENTRICITY   = .02280831
INCLINATION    = 97.3942
RA_OF_ASC_NODE = 331.0573
ARG_OF_PERICENTER = 205.9229
MEAN_ANOMALY   = 153.0475

EPHEMERIS_TYPE = 0
CLASSIFICATION_TYPE = U
NORAD_CAT_ID   = 68410
ELEMENT_SET_NO = 999
REV_AT_EPOCH   = 15
BSTAR          = .25022275E-3
MEAN_MOTION_DOT = .479178E-2
MEAN_MOTION_DDOT = .2264235E-5

CCSDS_OMM_VERS = 2.0
CREATION_DATE  = 
ORIGINATOR     = 

OBJECT_NAME    = ELECTRON KICK STAGE R/B
OBJECT_ID      = 2026-065D
CENTER_NAME    = EARTH
REF_FRAME      = TEME
TIME_SYSTEM    = UTC
MEAN_ELEMENT_THEORY = SGP/SGP4

EPOCH          = 2026-03-30T16:54:54.803808
MEAN_MOTION    = 15.75328689
ECCENTRICITY   = .02045106
INCLINATION    = 97.4169
RA_OF_ASC_NODE = 332.0388
ARG_OF_PERICENTER = 25.2779
MEAN_ANOMALY   = 335.8323

EPHEMERIS_TYPE = 0
CLASSIFICATION_TYPE = U
NORAD_CAT_ID   = 68411
ELEMENT_SET_NO = 999
REV_AT_EPOCH   = 37
BSTAR          = .32519468E-3
MEAN_MOTION_DOT = .204615E-2
MEAN_MOTION_DDOT = .215409E-5

CCSDS_OMM_VERS = 2.0
CREATION_DATE  = 
ORIGINATOR     = 

OBJECT_NAME    = XINZHENGCHENG-01
OBJECT_ID      = 2026-066A
CENTER_NAME    = EARTH
REF_FRAME      = TEME
TIME_SYSTEM    = UTC
MEAN_ELEMENT_THEORY = SGP/SGP4

EPOCH          = 2026-03-31T20:39:16.914816
MEAN_MOTION    = 15.29824820
ECCENTRICITY   = .02060898
INCLINATION    = 84.9606
RA_OF_ASC_NODE = 276.9718
ARG_OF_PERICENTER = 144.2419
MEAN_ANOMALY   = 217.2835

EPHEMERIS_TYPE = 0
CLASSIFICATION_TYPE = U
NORAD_CAT_ID   = 68412
ELEMENT_SET_NO = 999
REV_AT_EPOCH   = 22
BSTAR          = .49493725E-3
MEAN_MOTION_DOT = .2782E-3
MEAN_MOTION_DDOT = 0

